{
    "links": {
        "self": "http://www.neowsapp.com/rest/v1/neo/3720867?api_key=iIulBulltgU6a56xZRHN4H3l9WmuAYTsLGpBGhQ2"
    },
    "id": "3720867",
    "neo_reference_id": "3720867",
    "name": "(2015 HS182)",
    "designation": "2015 HS182",
    "nasa_jpl_url": "http://ssd.jpl.nasa.gov/sbdb.cgi?sstr=3720867",
    "absolute_magnitude_h": 24.5,
    "estimated_diameter": {
        "kilometers": {
            "estimated_diameter_min": 0.0334622374,
            "estimated_diameter_max": 0.0748238376
        },
        "meters": {
            "estimated_diameter_min": 33.4622374455,
            "estimated_diameter_max": 74.8238376074
        },
        "miles": {
            "estimated_diameter_min": 0.0207924639,
            "estimated_diameter_max": 0.0464933628
        },
        "feet": {
            "estimated_diameter_min": 109.7842471007,
            "estimated_diameter_max": 245.4850393757
        }
    },
    "is_potentially_hazardous_asteroid": false,
    "close_approach_data": [
        {
            "close_approach_date": "2015-05-18",
            "close_approach_date_full": "2015-May-18 03:27",
            "epoch_date_close_approach": 1431919620000,
            "relative_velocity": {
                "kilometers_per_second": "13.0596483855",
                "kilometers_per_hour": "47014.734187831",
                "miles_per_hour": "29213.1274735442"
            },
            "miss_distance": {
                "astronomical": "0.0569029462",
                "lunar": "22.1352460718",
                "kilometers": "8512559.548244594",
                "miles": "5289459.2277956372"
            },
            "orbiting_body": "Earth"
        }
    ],
    "orbital_data": {
        "orbit_id": "4",
        "orbit_determination_date": "2019-01-20 07:05:57",
        "first_observation_date": "2015-04-18",
        "last_observation_date": "2015-04-22",
        "data_arc_in_days": 4,
        "observations_used": 15,
        "orbit_uncertainty": "9",
        "minimum_orbit_intersection": ".0238195",
        "jupiter_tisserand_invariant": "3.850",
        "epoch_osculation": "2457133.5",
        "eccentricity": ".5612274035221216",
        "semi_major_axis": "1.810721811481536",
        "inclination": "1.628198543378122",
        "ascending_node_longitude": "306.3222754812204",
        "orbital_period": "889.9713507361542",
        "perihelion_distance": ".7944951107228809",
        "perihelion_argument": "351.5116025910973",
        "aphelion_distance": "2.826948512240191",
        "perihelion_time": "2457203.659088321464",
        "mean_anomaly": "331.6201293728893",
        "mean_motion": ".4045074031902489",
        "equinox": "J2000",
        "orbit_class": {
            "orbit_class_type": "APO",
            "orbit_class_description": "Near-Earth asteroid orbits which cross the Earth’s orbit similar to that of 1862 Apollo",
            "orbit_class_range": "a (semi-major axis) > 1.0 AU; q (perihelion) < 1.017 AU"
        }
    },
    "is_sentry_object": false
}